     2.100          NAVIGATION                              RINEX VERSION / TYPE
fic2rin                                 05/09/2010 00:20:24 PGM / RUN BY / DATE
                                                            END OF HEADER
29 10  5  8  4  0  0.0  .118304044008D-03  .272848410532D-11  .000000000000D+00
     .760000000000D+02 -.336562500000D+02  .457590489052D-08 -.506030590434D+00
    -.160746276379D-05  .305229157675D-02  .989809632301D-05  .515375090408D+04
     .532800000000D+06 -.372529029846D-08 -.127365096371D+01 -.391155481339D-07
     .960190373109D+00  .186312500000D+03 -.129999561234D+01 -.808890836407D-08
    -.216794744657D-09  .100000000000D+01  .158200000000D+04  .000000000000D+00
     .240000000000D+01  .000000000000D+00 -.884756445885D-08  .760000000000D+02
     .525606000000D+06  .400000000000D+01
30 10  5  8  4  0  0.0  .240643974394D-03  .352429196937D-11  .000000000000D+00
     .480000000000D+02 -.231250000000D+02  .497592155282D-08 -.216439393261D+01
    -.106915831566D-05  .121406965191D-01  .483915209770D-05  .515373665810D+04
     .532800000000D+06  .141561031342D-06 -.239587011587D+01  .875443220139D-07
     .955866971810D+00  .281187500000D+03  .147851624726D+01 -.817926927082D-08
     .132862677121D-09  .100000000000D+01  .158200000000D+04  .000000000000D+00
     .240000000000D+01  .000000000000D+00 -.791624188423D-08  .480000000000D+02
     .525606000000D+06  .400000000000D+01
31 10  5  8  4  0  0.0 -.378289259970D-04  .216004991671D-11  .000000000000D+00
     .104000000000D+03  .225625000000D+02  .421660420992D-08  .194417197228D+00
     .108964741230D-05  .742987985723D-02  .800564885139D-05  .515368123817D+04
     .532800000000D+06 -.279396772385D-07  .288684042403D+01 -.819563865662D-07
     .976928041637D+00  .229437500000D+03 -.105526242741D+01 -.808497962900D-08
     .377158567311D-09  .100000000000D+01  .158200000000D+04  .000000000000D+00
     .240000000000D+01  .000000000000D+00 -.130385160446D-07  .104000000000D+03
     .525606000000D+06  .400000000000D+01
32 10  5  8  4  0  0.0  .343341380358D-04 -.852651282912D-11  .000000000000D+00
     .260000000000D+02  .978125000000D+01  .480805741775D-08  .100410745473D+01
     .216066837311D-06  .126548258122D-01  .477395951748D-05  .515374059105D+04
     .532800000000D+06  .154599547386D-06  .875266641500D+00 -.257045030594D-06
     .959485138339D+00  .285843750000D+03 -.987102655896D+00 -.843570852398D-08
    -.120362156424D-09  .100000000000D+01  .158200000000D+04  .000000000000D+00
     .240000000000D+01  .000000000000D+00 -.325962901115D-08  .260000000000D+02
     .525606000000D+06  .400000000000D+01
12 10  5  8  3 59 44.0 -.117872841656D-03  .432009983342D-11  .000000000000D+00
     .360000000000D+02 -.270625000000D+02  .475555523082D-08  .240468783119D+00
    -.142492353916D-05  .354288122617D-02  .544264912605D-05  .515369408035D+04
     .532784000000D+06  .000000000000D+00 -.234259863281D+01 -.521540641785D-07
     .970554942892D+00  .282437500000D+03 -.466145815747D+00 -.823105714228D-08
     .475019786481D-10  .100000000000D+01  .158200000000D+04  .000000000000D+00
     .240000000000D+01  .000000000000D+00 -.116415321827D-07  .360000000000D+02
     .527436000000D+06  .400000000000D+01
20 10  5  8  3 59 44.0  .564875081182D-04 -.568434188608D-12  .000000000000D+00
     .900000000000D+01  .241875000000D+02  .520485966044D-08 -.164956998006D+01
     .124052166939D-05  .429310614709D-02  .452622771263D-05  .515361509895D+04
     .532784000000D+06  .130385160446D-06  .758427890537D+00  .912696123123D-07
     .937616170540D+00  .280062500000D+03  .132017987198D+01 -.853035532354D-08
    -.107861635727D-09  .100000000000D+01  .158200000000D+04  .000000000000D+00
     .240000000000D+01  .000000000000D+00 -.791624188423D-08  .900000000000D+01
     .531096000000D+06  .400000000000D+01
 3 10  5  8  3 59 28.0  .552067998797D-03  .500222085975D-11  .000000000000D+00
     .102000000000D+03 -.608437500000D+02  .541558272362D-08  .175636807763D+01
    -.326149165630D-05  .130288470536D-01  .889971852303D-05  .515371136284D+04
     .532768000000D+06 -.290572643280D-06 -.142526800850D+01 -.191852450371D-06
     .926800439747D+00  .193937500000D+03  .992012669790D+00 -.848749639544D-08
    -.254296306748D-09  .100000000000D+01  .158200000000D+04  .000000000000D+00
     .240000000000D+01  .000000000000D+00 -.465661287308D-08  .102000000000D+03
     .532536000000D+06  .400000000000D+01
 3 10  5  8  5 59 28.0  .552103854716D-03  .500222085975D-11  .000000000000D+00
     .103000000000D+03 -.575000000000D+02  .535593738200D-08  .280661692972D+01
    -.307336449623D-05  .130292859394D-01  .903382897377D-05  .515370930099D+04
     .539968000000D+06  .298023223877D-07 -.142532777309D+01 -.195577740669D-06
     .926799910171D+00  .184406250000D+03  .991928951377D+00 -.819819863074D-08
    -.253939149013D-09  .100000000000D+01  .158200000000D+04  .000000000000D+00
     .240000000000D+01  .000000000000D+00 -.465661287308D-08  .103000000000D+03
     .532806000000D+06  .400000000000D+01
12 10  5  8  5 59 44.0 -.117842108011D-03  .432009983342D-11  .000000000000D+00
     .370000000000D+02 -.210937500000D+02  .468590947265D-08  .129039679971D+01
    -.116042792797D-05  .354358379263D-02  .517256557941D-05  .515369617081D+04
     .539984000000D+06  .558793544769D-07 -.234265758109D+01 -.223517417908D-07
     .970555497338D+00  .287718750000D+03 -.465904448893D+00 -.817569769348D-08
     .392873507616D-10  .100000000000D+01  .158200000000D+04  .000000000000D+00
     .240000000000D+01  .000000000000D+00 -.116415321827D-07  .370000000000D+02
     .532806000000D+06  .400000000000D+01
20 10  5  8  5 59 44.0  .564833171666D-04 -.568434188608D-12  .000000000000D+00
     .250000000000D+02  .218437500000D+02  .531772150445D-08 -.599482224509D+00
     .113062560558D-05  .429277983494D-02  .468455255032D-05  .515361383820D+04
     .539984000000D+06 -.204890966415D-07  .758365808683D+00  .819563865662D-07
     .937614808563D+00  .276000000000D+03  .132031461990D+01 -.866607526253D-08
    -.103932900651D-09  .100000000000D+01  .158200000000D+04  .000000000000D+00
     .240000000000D+01  .000000000000D+00 -.791624188423D-08  .250000000000D+02
     .532806000000D+06  .400000000000D+01
 1 10  5  8  6  0  0.0 -.117090996355D-03 -.409272615798D-11  .000000000000D+00
     .116000000000D+03 -.255312500000D+02  .604668043994D-08 -.139603339007D+01
    -.127963721752D-05  .462731951848D-02  .516138970852D-05  .515479162979D+04
     .540000000000D+06  .596046447754D-07 -.235692217344D+01  .149011611938D-07
     .964485052937D+00  .279593750000D+03  .862334559787D+00 -.822427114533D-08
     .102861427448D-09  .100000000000D+01  .158200000000D+04  .000000000000D+00
     .240000000000D+01  .630000000000D+02 -.190921127796D-07  .116000000000D+03
     .532806000000D+06  .400000000000D+01
 2 10  5  8  6  0  0.0  .253677833825D-03  .352429196937D-11  .000000000000D+00
     .105000000000D+03  .494687500000D+02  .485770234280D-08  .288127001235D+01
     .253319740295D-05  .954288733192D-02  .917911529541D-05  .515358366585D+04
     .540000000000D+06 -.188127160072D-06 -.273063727297D+00  .242143869400D-07
     .940253716747D+00  .192750000000D+03  .305441848730D+01 -.808140805165D-08
     .425017703693D-10  .100000000000D+01  .158200000000D+04  .000000000000D+00
     .340000000000D+01  .000000000000D+00 -.172294676304D-07  .105000000000D+03
     .532806000000D+06  .400000000000D+01
 4 10  5  8  6  0  0.0  .771530903876D-04  .841282599140D-11  .000000000000D+00
     .290000000000D+02  .473437500000D+02  .505128183474D-08 -.309434231898D+00
     .249594449997D-05  .906904181466D-02  .876002013683D-05  .515368556023D+04
     .540000000000D+06  .260770320892D-07 -.255183287145D+00  .931322574615D-07
     .939403452667D+00  .197656250000D+03  .605687070120D+00 -.841535053313D-08
     .210723063176D-10  .100000000000D+01  .158200000000D+04  .000000000000D+00
     .240000000000D+01  .000000000000D+00 -.605359673500D-08  .290000000000D+02
     .532806000000D+06  .400000000000D+01
 5 10  5  8  6  0  0.0 -.256905332208D-05 -.795807864051D-12  .000000000000D+00
     .320000000000D+02  .195312500000D+02  .468983820773D-08 -.183704688179D+01
     .101141631603D-05  .184577330947D-02  .477954745293D-05  .515369723320D+04
     .540000000000D+06 -.242143869400D-07  .786198869664D+00 -.242143869400D-07
     .958723012147D+00  .287843750000D+03  .321275880807D+00 -.826391565383D-08
    -.950039572962D-10  .100000000000D+01  .158200000000D+04  .000000000000D+00
     .240000000000D+01  .000000000000D+00 -.884756445885D-08  .320000000000D+02
     .532806000000D+06  .400000000000D+01
 6 10  5  8  6  0  0.0  .646016560495D-03 -.106865627458D-10  .000000000000D+00
     .410000000000D+02 -.398750000000D+02  .524664711534D-08 -.124161197815D+01
    -.212527811527D-05  .626402744092D-02  .966340303421D-05  .515366410255D+04
     .540000000000D+06 -.117346644402D-06 -.135484201157D+01 -.409781932831D-07
     .934152573010D+00  .180718750000D+03 -.108082002904D+01 -.843106547343D-08
    -.180721813503D-09  .100000000000D+01  .158200000000D+04  .000000000000D+00
     .240000000000D+01  .000000000000D+00 -.512227416039D-08  .410000000000D+02
     .532806000000D+06  .400000000000D+01
 7 10  5  8  6  0  0.0 -.260304659605D-06 -.341060513165D-12  .000000000000D+00
     .900000000000D+02  .190000000000D+02  .422946188835D-08  .130287583325D+01
     .987201929092D-06  .344073865563D-02  .841729342937D-05  .515371809578D+04
     .540000000000D+06  .204890966415D-07  .288728780779D+01  .204890966415D-07
     .971666520714D+00  .223250000000D+03  .303579573326D+01 -.794890253227D-08
     .320727645308D-09  .100000000000D+01  .158200000000D+04  .000000000000D+00
     .340000000000D+01  .000000000000D+00 -.102445483208D-07  .900000000000D+02
     .532806000000D+06  .400000000000D+01
